#dP2023  1  6  0  0  0.00000000      96 __u+U ITR00 EXT  IAC
## 2243 432000.00000000   900.00000000 59950 0.0000000000000
+  116   C06C07C08C09C10C11C12C13C14C16C19C20C21C22C23C24C25
+        C26C27C28C29C30C32C33C34C36C37C38C39C41C42C43C44C45
+        C46E01E02E03E04E05E07E08E09E10E11E12E13E14E15E18E19
+        E21E24E25E26E27E30E31E33E34E36G01G02G03G04G05G06G07
+        G08G09G10G11G12G13G14G15G16G17G18G19G20G21G22G23G24
+        G25G26G27G29G30G31G32J02J04R01R02R03R04R05R07R08R09
+        R11R12R13R14R15R16R17R18R19R20R21R22R24R25  0  0  0
++         0  0  0  0  0  0  0  0  0  0  0  0  0  0  0  0  0
++         0  0  0  0  0  0  0  0  0  0  0  0  0  0  0  0  0
++         0  0  0  0  0  0  0  0  0  0  0  0  0  0  0  0  0
++         0  0  0  0  0  0  0  0  0  0  0  0  0  0  0  0  0
++         0  0  0  0  0  0  0  0  0  0  0  0  0  0  0  0  0
++         0  0  0  0  0  0  0  0  0  0  0  0  0  0  0  0  0
++         0  0  0  0  0  0  0  0  0  0  0  0  0  0  0  0  0
%c M  cc GPS ccc cccc cccc cccc cccc ccccc ccccc ccccc ccccc
%c cc cc ccc ccc cccc cccc cccc cccc ccccc ccccc ccccc ccccc
%f  0.0000000  0.000000000  0.00000000000  0.000000000000000
%f  0.0000000  0.000000000  0.00000000000  0.000000000000000
%i    0    0    0    0      0      0      0      0         0
%i    0    0    0    0      0      0      0      0         0
/* IAC                                ULTRA-RAPID PREDICTION
/* S/V CLOCKS ARE ALIGNED TO GNSS TIME                      
/* G:C1WC2W R:C1PC2P E:C1XC5X C:C2IC6I J:C1CC2S             
/* PCV:IGS20_2239 OL/AL:FES2004  NONE     YN ORB:CoN CLK:CoN
*  2023 01 06 15  0  0.00000000
PC06  -5277.651174  24431.557199 -33925.553655    207.724563
PC07 -15607.685927  35056.329172  17320.398818     54.394172
PC08  -2412.838187  39555.774395  14680.946126    526.915563
PC09   3122.514385  26857.085138 -31835.685748    152.119904
PC10  -9927.389550  34759.911107  21588.025113     37.452689
PC11  27131.392924   4565.951655  -4663.117220   -193.211942
PC12  20568.665488  14177.667694  12489.776228    383.635582
PC13   1209.694453  41181.157249   9780.616897    176.746776
PC14  21465.455849  -5449.799742 -16993.267877    340.430696
PC16  -8152.232917  22678.392825 -34417.399365     87.407549
PC19 -22325.880396  13819.438849   9455.505598   -898.461038
PC20 -17994.718249  -2214.971731  21218.499850    777.880792
PC21   2447.858106  18129.468765 -21054.888530   -919.000885
PC22 -13977.061602  22638.268534  -8391.643808   -699.974540
PC23   4944.654316 -22874.933280  15187.950121   -870.992452
PC24  16537.181395  15553.234439  16230.250783   -576.202717
PC25  14865.356560  -6886.222469  22576.666683     51.224252
PC26   9494.671503  26191.768580   1919.753701    -60.512775
PC27 -12822.503992 -16620.504742 -18409.859156     77.517268
PC28   6931.665091 -14531.757588 -22785.453462     55.820597
PC29 -24075.126178   4230.295627  13464.141528     63.809179
PC30 -26126.203007  -8882.953100  -4243.495290      1.260867
PC32  -2516.894528 -18187.745920  21029.751867   -658.485228
PC33  22257.748377 -13900.204211  -9505.445455   -883.833546
PC34  26489.432067   8184.085840   3056.852735     77.696331
PC36 -15249.044029   5832.987440 -22616.427769   -713.776672
PC37  -8018.475585 -26705.619528   -605.782977   -856.078597
PC38  -7332.115960  36098.481032  20677.789278     50.116727
PC39 -13491.696867  20601.771101 -34212.376300     -1.329472
PC41  14285.954011 -22654.436682   7885.967777   -463.432566
PC42  17309.898298   3360.498233 -21591.188934   -912.238513
PC43  24507.999170  -3705.278801 -12802.474122      0.690868
PC44  13157.847241  16269.933385  18439.712422    168.776806
PC45  -4600.104582  23120.953965 -14962.810063    -44.161944
PC46 -16811.697004 -13735.146208 -17517.825930    -24.621658
PE01  12986.770069  12809.450972  23311.713063   -590.982263
PE02 -13177.288131 -12406.970926 -23423.530364     13.083499
PE03 -23531.422636  -6028.696033  16903.331891   -637.260657
PE04  28608.901249  -7587.204905    -49.055949    -30.341520
PE05  -4484.902487 -16423.859416  24211.897208   -107.802576
PE07 -16949.572355  17067.725735 -17247.948925    -13.079525
PE08 -28604.594581   7599.803356    131.105876    -15.054348
PE09  17137.120422 -16958.344052  17175.958475   -790.527685
PE10  14405.010811  -8021.921424 -24582.156728   -503.156234
PE11   5227.019771 -16677.739266 -23892.994915    341.549569
PE12  20530.935180    993.604866 -21287.312472   -374.483208
PE13  -6010.319508  15988.857013  24183.525244    430.074675
PE14  27673.058760 -12362.353986 -10283.138602    105.809626
PE15 -20661.593643  -1313.378040  21169.528956    695.955176
PE18 -22952.501687   6093.297876   4040.895717   -540.732590
PE19  21557.874840   7776.483701 -18728.363273  -3554.578265
PE21   1623.081985  26741.466341  12595.217337   -504.691906
PE24  12161.586754 -26062.841554   6915.907868  -1043.141868
PE25  -1407.409571 -26862.055287 -12337.529232   -596.603331
PE26  12573.885453  23852.517229  12225.638952  -1859.356329
PE27 -11588.454586  26554.595433  -6109.098949   -481.211937
PE30 -17972.719536   9908.059701 -21351.339308  -1138.564984
PE31  17848.151736 -10714.265363  21041.986777   -512.613737
PE33  23007.147618  17733.063877  -5660.465507   -454.700993
PE34 -23086.277955 -17574.951033   5841.160062    -23.456933
PE36 -12013.970252 -23734.287358 -12979.947707   -486.450176
PG01 -20428.724188 -11850.632227  12180.738744    227.828015
PG02  21008.789119   7390.162517 -13672.766799   -628.900341
PG03 -14613.084845  -2875.986985  21864.843169   -373.587866
PG04 -25486.281176  -1303.370701   7568.070757    -54.096014
PG05   8147.457895  17447.041947 -18411.769413   -110.956283
PG06    130.150089  19000.146920  18590.112611    554.012535
PG07 -16899.262896   2353.470002 -20044.924728    263.108576
PG08 -18981.980788  -8005.084429 -17022.021251   -102.274505
PG09 -25193.635079   7844.972411  -3328.982853   -241.076662
PG10  11254.286482 -23405.209395  -4524.368770    -19.302436
PG11  10528.752799  22927.053804   8372.240480    -72.672979
PG12  14032.658188   5188.843890  21668.411146   -324.881210
PG13  11505.542988  13239.696401 -20176.985728    454.798196
PG14 -13511.841834  21772.952640  -6735.802426    -54.655708
PG15  19940.831290   6495.705405 -16904.052982      2.303170
PG16  -3622.817368 -20268.547660 -16803.851904   -524.592504
PG17 -17593.683352  12940.445353  15617.126888    691.466878
PG18  14595.415918  -5408.693761 -21536.316532    -88.362812
PG19  -6342.204351  14740.499815  20880.871011    260.511417
PG20   1934.441174  25193.408608  -8512.566557    458.765433
PG21 -21290.472540 -16044.336133   4802.224134    153.237229
PG22   2232.971265 -15546.589940  21830.883711    400.267371
PG23  15435.981322 -15770.572114 -14675.134133      1.723461
PG24  21787.451507  13456.776682   7472.061009    -18.068035
PG25  16551.005176  -5927.088940  19517.030881    408.890335
PG26   3105.739802 -25693.185733  -5208.082626    239.851981
PG27  -7843.545080 -13615.831825 -21691.251352    133.800658
PG29  26316.260810  -3764.640497  -1037.421893   -578.804963
PG30  -7895.228067  14375.726140 -20759.099055   -533.911141
PG31   -965.976703 -20046.773079  16994.033146   -205.539264
PG32  14081.927846 -14943.258480  16893.729914   -355.137551
PJ02 -24220.905307  31011.865431 -10460.688848     -0.505323
PJ04 -32216.305516  27284.425996   6100.472824    117.679249
PR01  -4565.489652  15295.626663 -19894.852878     20.791381
PR02  12357.463448   3912.024123 -21914.577061    -23.336519
PR03  21337.457219  -9010.757397 -10571.814261     70.415485
PR04  18375.932953 -16492.458763   6394.218410    171.360409
PR05   5398.812465 -15032.007976  19887.409497    105.766171
PR07 -21537.339441   9482.328795   9948.712640     47.494117
PR08 -18266.911733  16619.295967  -6402.878731    -68.876907
PR09 -10260.472502 -16396.015606 -16658.288638     97.101200
PR11  -6041.604917  18181.236228 -16828.282637      8.855688
PR12   2839.376161  25354.530003    618.225006     24.132704
PR13   9498.826148  17839.939013  15545.979726    -30.689878
PR14  11012.697742  -1762.677237  22946.261787     24.197009
PR15   5875.887583 -18959.861933  16033.064492     91.883527
PR16  -2873.976966 -25359.666386   -222.319646      9.620660
PR17  22054.758051   4171.583944 -12138.816635    593.378231
PR18  10664.499259  -6040.399858 -22339.704240     60.473665
PR19  -4468.142918 -12997.313886 -21481.222555   -217.282879
PR20 -20745.923094 -13623.152276  -5970.082077    -85.336693
PR21 -21307.881547  -3287.689434  13619.273347   -363.335239
PR22 -10386.444946   6480.179905  22411.516677     65.456064
PR24  21355.891808  12909.901602   5341.615350    137.799986
PR25 -21993.427683  -5277.925986  11785.732746     50.877814
EOF
